ORBCOMM FM115           
1 41186U 15081H   25330.07906904  .00000961  00000+0  22031-3 0  9999
2 41186  46.9997 349.4103 0000237 317.3689  42.7180 14.62869627531472
ORBCOMM FM108           
1 41187U 15081J   25329.99798146  .00001198  00000+0  29187-3 0  9998
2 41187  47.0048  62.6262 0002557 319.3793  40.6901 14.58477776530413
ORBCOMM FM117           
1 41188U 15081K   25329.75872591  .00001098  00000+0  27048-3 0  9993
2 41188  47.0018  62.4665 0002955 326.4739  33.5959 14.58521012530425
ORBCOMM FM116           
1 41189U 15081L   25329.53393573  .00000507  00000+0  14428-3 0  9990
2 41189  47.0004 153.3036 0002051 193.2973 166.7859 14.58603501529206
